[{"OBJECT_NAME":"STARLINK-36878","OBJECT_ID":"2026-035W","EPOCH":"2026-03-10T04:00:01.999584","MEAN_MOTION":15.85939768,"ECCENTRICITY":0.000145,"INCLINATION":97.2671,"RA_OF_ASC_NODE":1.5547,"ARG_OF_PERICENTER":107.4803,"MEAN_ANOMALY":7.8437,"EPHEMERIS_TYPE":0,"CLASSIFICATION_TYPE":"U","NORAD_CAT_ID":67899,"ELEMENT_SET_NO":999,"REV_AT_EPOCH":383,"BSTAR":-0.0059624,"MEAN_MOTION_DOT":-0.01284962,"MEAN_MOTION_DDOT":0},{"OBJECT_NAME":"STARLINK-36361","OBJECT_ID":"2026-035X","EPOCH":"2026-03-10T04:00:01.999584","MEAN_MOTION":15.85888929,"ECCENTRICITY":0.0001454,"INCLINATION":97.2669,"RA_OF_ASC_NODE":1.5567,"ARG_OF_PERICENTER":107.558,"MEAN_ANOMALY":12.4847,"EPHEMERIS_TYPE":0,"CLASSIFICATION_TYPE":"U","NORAD_CAT_ID":67900,"ELEMENT_SET_NO":999,"REV_AT_EPOCH":383,"BSTAR":-0.0059974,"MEAN_MOTION_DOT":-0.01288798,"MEAN_MOTION_DDOT":0},{"OBJECT_NAME":"STARLINK-36336","OBJECT_ID":"2026-035Y","EPOCH":"2026-03-10T04:00:01.999584","MEAN_MOTION":15.85740946,"ECCENTRICITY":0.0001437,"INCLINATION":97.2676,"RA_OF_ASC_NODE":1.5637,"ARG_OF_PERICENTER":97.9565,"MEAN_ANOMALY":36.3257,"EPHEMERIS_TYPE":0,"CLASSIFICATION_TYPE":"U","NORAD_CAT_ID":67901,"ELEMENT_SET_NO":999,"REV_AT_EPOCH":388,"BSTAR":-0.0061997,"MEAN_MOTION_DOT":-0.01318664,"MEAN_MOTION_DDOT":0},{"OBJECT_NAME":"STARLINK-36876","OBJECT_ID":"2026-035Z","EPOCH":"2026-03-10T04:00:01.999584","MEAN_MOTION":15.85879583,"ECCENTRICITY":0.0001567,"INCLINATION":97.2676,"RA_OF_ASC_NODE":1.5599,"ARG_OF_PERICENTER":105.1915,"MEAN_ANOMALY":19.3262,"EPHEMERIS_TYPE":0,"CLASSIFICATION_TYPE":"U","NORAD_CAT_ID":67902,"ELEMENT_SET_NO":999,"REV_AT_EPOCH":383,"BSTAR":-0.0060656,"MEAN_MOTION_DOT":-0.01301294,"MEAN_MOTION_DDOT":0},{"OBJECT_NAME":"STARLINK-36257","OBJECT_ID":"2026-035AA","EPOCH":"2026-03-10T04:00:01.999584","MEAN_MOTION":15.85852137,"ECCENTRICITY":0.0001402,"INCLINATION":97.2673,"RA_OF_ASC_NODE":1.5607,"ARG_OF_PERICENTER":90.9326,"MEAN_ANOMALY":38.1529,"EPHEMERIS_TYPE":0,"CLASSIFICATION_TYPE":"U","NORAD_CAT_ID":67903,"ELEMENT_SET_NO":999,"REV_AT_EPOCH":388,"BSTAR":-0.006098,"MEAN_MOTION_DOT":-0.01305773,"MEAN_MOTION_DDOT":0},{"OBJECT_NAME":"STARLINK-36814","OBJECT_ID":"2026-036A","EPOCH":"2026-03-10T04:00:01.999584","MEAN_MOTION":15.73666053,"ECCENTRICITY":0.0001792,"INCLINATION":42.9996,"RA_OF_ASC_NODE":246.9617,"ARG_OF_PERICENTER":273.4853,"MEAN_ANOMALY":129.9141,"EPHEMERIS_TYPE":0,"CLASSIFICATION_TYPE":"U","NORAD_CAT_ID":67904,"ELEMENT_SET_NO":999,"REV_AT_EPOCH":372,"BSTAR":-0.015466,"MEAN_MOTION_DOT":-0.01979697,"MEAN_MOTION_DDOT":0},{"OBJECT_NAME":"STARLINK-36729","OBJECT_ID":"2026-036B","EPOCH":"2026-03-09T23:07:38.664480","MEAN_MOTION":15.82119465,"ECCENTRICITY":0.0002071,"INCLINATION":42.9992,"RA_OF_ASC_NODE":248.1201,"ARG_OF_PERICENTER":279.1565,"MEAN_ANOMALY":80.9072,"EPHEMERIS_TYPE":0,"CLASSIFICATION_TYPE":"U","NORAD_CAT_ID":67905,"ELEMENT_SET_NO":999,"REV_AT_EPOCH":371,"BSTAR":0.0013842,"MEAN_MOTION_DOT":0.00302828,"MEAN_MOTION_DDOT":0},{"OBJECT_NAME":"STARLINK-36763","OBJECT_ID":"2026-036C","EPOCH":"2026-03-09T21:35:39.581952","MEAN_MOTION":15.82061167,"ECCENTRICITY":0.0001658,"INCLINATION":42.9991,"RA_OF_ASC_NODE":248.5006,"ARG_OF_PERICENTER":287.2048,"MEAN_ANOMALY":72.8643,"EPHEMERIS_TYPE":0,"CLASSIFICATION_TYPE":"U","NORAD_CAT_ID":67906,"ELEMENT_SET_NO":999,"REV_AT_EPOCH":370,"BSTAR":0.00090861,"MEAN_MOTION_DOT":0.00195584,"MEAN_MOTION_DDOT":0},{"OBJECT_NAME":"STARLINK-36742","OBJECT_ID":"2026-036D","EPOCH":"2026-03-09T21:34:34.583232","MEAN_MOTION":15.82098755,"ECCENTRICITY":0.0002122,"INCLINATION":42.9993,"RA_OF_ASC_NODE":248.4956,"ARG_OF_PERICENTER":279.111,"MEAN_ANOMALY":80.9522,"EPHEMERIS_TYPE":0,"CLASSIFICATION_TYPE":"U","NORAD_CAT_ID":67907,"ELEMENT_SET_NO":999,"REV_AT_EPOCH":370,"BSTAR":0.001231,"MEAN_MOTION_DOT":0.00267893,"MEAN_MOTION_DDOT":0},{"OBJECT_NAME":"STARLINK-36827","OBJECT_ID":"2026-036E","EPOCH":"2026-03-09T23:04:24.660192","MEAN_MOTION":15.82117013,"ECCENTRICITY":0.0002108,"INCLINATION":42.9986,"RA_OF_ASC_NODE":248.1012,"ARG_OF_PERICENTER":299.4497,"MEAN_ANOMALY":60.6164,"EPHEMERIS_TYPE":0,"CLASSIFICATION_TYPE":"U","NORAD_CAT_ID":67908,"ELEMENT_SET_NO":999,"REV_AT_EPOCH":371,"BSTAR":0.0015202,"MEAN_MOTION_DOT":0.003338,"MEAN_MOTION_DDOT":0},{"OBJECT_NAME":"STARLINK-36822","OBJECT_ID":"2026-036F","EPOCH":"2026-03-09T23:03:19.833408","MEAN_MOTION":15.82145601,"ECCENTRICITY":0.000177,"INCLINATION":42.9986,"RA_OF_ASC_NODE":248.0951,"ARG_OF_PERICENTER":299.6042,"MEAN_ANOMALY":60.4653,"EPHEMERIS_TYPE":0,"CLASSIFICATION_TYPE":"U","NORAD_CAT_ID":67909,"ELEMENT_SET_NO":999,"REV_AT_EPOCH":371,"BSTAR":0.0018493,"MEAN_MOTION_DOT":0.00410368,"MEAN_MOTION_DDOT":0},{"OBJECT_NAME":"STARLINK-36847","OBJECT_ID":"2026-036G","EPOCH":"2026-03-09T23:02:15.034272","MEAN_MOTION":15.82144193,"ECCENTRICITY":0.000196,"INCLINATION":42.9987,"RA_OF_ASC_NODE":248.0891,"ARG_OF_PERICENTER":297.1888,"MEAN_ANOMALY":62.8784,"EPHEMERIS_TYPE":0,"CLASSIFICATION_TYPE":"U","NORAD_CAT_ID":67910,"ELEMENT_SET_NO":999,"REV_AT_EPOCH":371,"BSTAR":0.0017758,"MEAN_MOTION_DOT":0.00393218,"MEAN_MOTION_DDOT":0},{"OBJECT_NAME":"STARLINK-36736","OBJECT_ID":"2026-036H","EPOCH":"2026-03-09T23:01:10.210080","MEAN_MOTION":15.82146838,"ECCENTRICITY":0.0002014,"INCLINATION":42.999,"RA_OF_ASC_NODE":248.0827,"ARG_OF_PERICENTER":267.9025,"MEAN_ANOMALY":92.1617,"EPHEMERIS_TYPE":0,"CLASSIFICATION_TYPE":"U","NORAD_CAT_ID":67911,"ELEMENT_SET_NO":999,"REV_AT_EPOCH":371,"BSTAR":0.001755,"MEAN_MOTION_DOT":0.00388444,"MEAN_MOTION_DDOT":0},{"OBJECT_NAME":"STARLINK-36676","OBJECT_ID":"2026-036J","EPOCH":"2026-03-09T23:00:05.435136","MEAN_MOTION":15.82146067,"ECCENTRICITY":0.0001838,"INCLINATION":42.9987,"RA_OF_ASC_NODE":248.0765,"ARG_OF_PERICENTER":288.2205,"MEAN_ANOMALY":71.8467,"EPHEMERIS_TYPE":0,"CLASSIFICATION_TYPE":"U","NORAD_CAT_ID":67912,"ELEMENT_SET_NO":999,"REV_AT_EPOCH":371,"BSTAR":0.0017417,"MEAN_MOTION_DOT":0.00385344,"MEAN_MOTION_DDOT":0},{"OBJECT_NAME":"STARLINK-36690","OBJECT_ID":"2026-036K","EPOCH":"2026-03-09T22:59:00.783744","MEAN_MOTION":15.821332,"ECCENTRICITY":0.0001907,"INCLINATION":42.9988,"RA_OF_ASC_NODE":248.0705,"ARG_OF_PERICENTER":284.5891,"MEAN_ANOMALY":75.4769,"EPHEMERIS_TYPE":0,"CLASSIFICATION_TYPE":"U","NORAD_CAT_ID":67913,"ELEMENT_SET_NO":999,"REV_AT_EPOCH":371,"BSTAR":0.0016353,"MEAN_MOTION_DOT":0.00360502,"MEAN_MOTION_DDOT":0},{"OBJECT_NAME":"STARLINK-36724","OBJECT_ID":"2026-036L","EPOCH":"2026-03-09T22:56:51.295200","MEAN_MOTION":15.82129688,"ECCENTRICITY":0.0001751,"INCLINATION":42.9993,"RA_OF_ASC_NODE":248.0577,"ARG_OF_PERICENTER":273.9452,"MEAN_ANOMALY":86.122,"EPHEMERIS_TYPE":0,"CLASSIFICATION_TYPE":"U","NORAD_CAT_ID":67914,"ELEMENT_SET_NO":999,"REV_AT_EPOCH":371,"BSTAR":0.001609,"MEAN_MOTION_DOT":0.00354373,"MEAN_MOTION_DDOT":0},{"OBJECT_NAME":"STARLINK-36723","OBJECT_ID":"2026-036M","EPOCH":"2026-03-09T22:57:56.130624","MEAN_MOTION":15.82144787,"ECCENTRICITY":0.0001838,"INCLINATION":42.9988,"RA_OF_ASC_NODE":248.0644,"ARG_OF_PERICENTER":294.6637,"MEAN_ANOMALY":65.4043,"EPHEMERIS_TYPE":0,"CLASSIFICATION_TYPE":"U","NORAD_CAT_ID":67915,"ELEMENT_SET_NO":999,"REV_AT_EPOCH":371,"BSTAR":0.0018416,"MEAN_MOTION_DOT":0.00408553,"MEAN_MOTION_DDOT":0}]
